NORAD_CAT_ID,OBJECT_NAME,OBJECT_TYPE,EPOCH,MEAN_MOTION,ECCENTRICITY,INCLINATION,RA_OF_ASC_NODE,ARG_OF_PERICENTER,MEAN_ANOMALY,BSTAR,MEAN_MOTION_DOT,MEAN_MOTION_DDOT,TLE_LINE0,TLE_LINE1,TLE_LINE2,SEMIMAJOR_AXIS,PERIOD,APOGEE,PERIGEE,DECAYED
52671.0,STARLINK-4071,PAYLOAD,2024-05-24 04:35:44,15.08815672,0.0001659,53.2174,212.2769,97.8692,262.2489,0.00052487,8.07e-05,0.0,0 STARLINK-4071,1 52671U 22053R   24145.19148251  .00008070  00000-0  52487-3 0  9994,2 52671  53.2174 212.2769 0001659  97.8692 262.2489 15.08815672111814,6917.955,95.439,540.967,538.672,0.0
52671.0,STARLINK-4071,PAYLOAD,2024-05-24 10:57:16,15.08854488,0.0001599,53.217,211.0897,83.9892,276.1282,0.00023697,3.487e-05,0.0,0 STARLINK-4071,1 52671U 22053R   24145.45643553  .00003487  00000-0  23697-3 0  9996,2 52671  53.2170 211.0897 0001599  83.9892 276.1282 15.08854488111857,6917.836,95.437,540.807,538.595,0.0
52671.0,STARLINK-4071,PAYLOAD,2024-05-24 14:08:01,15.08861022,0.0001545,53.2162,210.4925,91.8012,268.3157,0.00026905,3.999e-05,0.0,0 STARLINK-4071,1 52671U 22053R   24145.58891076  .00003999  00000-0  26905-3 0  9998,2 52671  53.2162 210.4925 0001545  91.8012 268.3157 15.08861022112291,6917.816,95.436,540.75,538.612,0.0
52671.0,STARLINK-4071,PAYLOAD,2024-05-25 10:48:03,15.08835115,0.0001511,53.2161,206.6286,96.742,263.3744,3.2904e-05,2.36e-06,0.0,0 STARLINK-4071,1 52671U 22053R   24146.45004509  .00000236  00000-0  32904-4 0  9990,2 52671  53.2161 206.6286 0001511  96.7420 263.3744 15.08835115112007,6917.895,95.438,540.806,538.715,0.0
52671.0,STARLINK-4071,PAYLOAD,2024-05-25 13:58:50,15.08836428,0.0001488,53.2157,206.0326,100.135,259.981,6.7454e-06,-1.81e-06,0.0,0 STARLINK-4071,1 52671U 22053R   24146.58252346 -.00000181  00000-0  67454-5 0  9997,2 52671  53.2157 206.0326 0001488 100.1350 259.9810 15.08836428112447,6917.891,95.438,540.786,538.727,0.0
52671.0,STARLINK-4071,PAYLOAD,2024-05-26 10:38:50,15.08845724,0.0001471,53.2159,202.1665,98.9087,261.2072,0.00015404,2.165e-05,0.0,0 STARLINK-4071,1 52671U 22053R   24147.44364077  .00002165  00000-0  15404-3 0  9997,2 52671  53.2159 202.1665 0001471  98.9087 261.2072 15.08845724112158,6917.863,95.437,540.746,538.71,0.0
52671.0,STARLINK-4071,PAYLOAD,2024-05-26 20:11:09,15.08842651,0.0001499,53.2162,200.3807,84.9135,275.2028,0.00014145,1.964e-05,0.0,0 STARLINK-4071,1 52671U 22053R   24147.84108128  .00001964  00000-0  14145-3 0  9991,2 52671  53.2162 200.3807 0001499  84.9135 275.2028 15.08842651112634,6917.872,95.437,540.774,538.7,0.0
52671.0,STARLINK-4071,PAYLOAD,2024-05-27 04:08:05,15.08834774,0.0001557,53.216,198.8968,101.8247,258.2919,8.3913e-05,1.048e-05,0.0,0 STARLINK-4071,1 52671U 22053R   24148.17228709  .00001048  00000-0  83913-4 0  9999,2 52671  53.2160 198.8968 0001557 101.8247 258.2919 15.08834774112265,6917.896,95.438,540.838,538.684,0.0
52671.0,STARLINK-4071,PAYLOAD,2024-05-27 10:29:38,15.08831659,0.0001496,53.2162,197.707,100.0579,260.0582,5.5704e-05,5.98e-06,0.0,0 STARLINK-4071,1 52671U 22053R   24148.43724973  .00000598  00000-0  55704-4 0  9998,2 52671  53.2162 197.7070 0001496 100.0579 260.0582 15.08831659112727,6917.906,95.438,540.806,538.736,0.0
52671.0,STARLINK-4071,PAYLOAD,2024-05-28 10:20:24,15.08845334,0.0001402,53.2159,193.2458,91.3906,268.7247,0.00011663,1.569e-05,0.0,0 STARLINK-4071,1 52671U 22053R   24149.43084370  .00001569  00000-0  11663-3 0  9993,2 52671  53.2159 193.2458 0001402  91.3906 268.7247 15.08845334112455,6917.864,95.437,540.699,538.759,0.0
52671.0,STARLINK-4071,PAYLOAD,2024-05-29 10:11:12,15.08839233,0.0001322,53.2165,188.7859,86.2908,273.8235,0.00014309,1.99e-05,0.0,0 STARLINK-4071,1 52671U 22053R   24150.42444921  .00001990  00000-0  14309-3 0  9994,2 52671  53.2165 188.7859 0001322  86.2908 273.8235 15.08839233112604,6917.883,95.438,540.662,538.833,0.0
52671.0,STARLINK-4071,PAYLOAD,2024-05-30 11:37:22,15.08847902,0.0001466,53.2166,184.0279,80.1301,279.9857,9.413e-05,1.211e-05,0.0,0 STARLINK-4071,1 52671U 22053R   24151.48428524  .00001211  00000-0  94130-4 0  9999,2 52671  53.2166 184.0279 0001466  80.1301 279.9857 15.08847902112765,6917.856,95.437,540.735,538.707,0.0
52671.0,STARLINK-4071,PAYLOAD,2024-05-31 08:17:22,15.08845656,0.0001469,53.2169,180.1623,86.0033,274.1127,0.0001026,1.346e-05,0.0,0 STARLINK-4071,1 52671U 22053R   24152.34540424  .00001346  00000-0  10260-3 0  9999,2 52671  53.2169 180.1623 0001469  86.0033 274.1127 15.08845656113311,6917.863,95.437,540.744,538.712,0.0
52671.0,STARLINK-4071,PAYLOAD,2024-06-01 04:57:23,15.08841123,0.0001381,53.2161,176.2951,95.0717,265.0433,4.1914e-05,3.79e-06,0.0,0 STARLINK-4071,1 52671U 22053R   24153.20652623  .00000379  00000-0  41914-4 0  9996,2 52671  53.2161 176.2951 0001381  95.0717 265.0433 15.08841123113027,6917.877,95.437,540.697,538.787,0.0
52671.0,STARLINK-4071,PAYLOAD,2024-06-01 08:08:10,15.08841009,0.0001378,53.2162,175.7004,95.0221,265.0928,3.4611e-05,2.63e-06,0.0,0 STARLINK-4071,1 52671U 22053R   24153.33900606  .00000263  00000-0  34611-4 0  9995,2 52671  53.2162 175.7004 0001378  95.0221 265.0928 15.08841009113467,6917.877,95.437,540.696,538.789,0.0
52671.0,STARLINK-4071,PAYLOAD,2024-06-02 04:48:11,15.08837109,0.0001349,53.2161,171.8351,94.6576,265.457,7.1735e-06,-1.74e-06,0.0,0 STARLINK-4071,1 52671U 22053R   24154.20013016 -.00000174  00000-0  71735-5 0  9993,2 52671  53.2161 171.8351 0001349  94.6576 265.4570 15.08837109113175,6917.889,95.438,540.687,538.821,0.0
52671.0,STARLINK-4071,PAYLOAD,2024-06-02 11:09:43,15.08836745,0.0001386,53.2166,170.6465,94.2241,265.8909,7.9647e-06,-1.61e-06,0.0,0 STARLINK-4071,1 52671U 22053R   24154.46509067 -.00000161  00000-0  79647-5 0  9993,2 52671  53.2166 170.6465 0001386  94.2241 265.8909 15.08836745113635,6917.89,95.438,540.714,538.797,0.0
52671.0,STARLINK-4071,PAYLOAD,2024-06-03 07:49:44,15.08836328,0.0001345,53.2164,166.7808,93.4682,266.6464,5.6315e-05,6.08e-06,0.0,0 STARLINK-4071,1 52671U 22053R   24155.32621278  .00000608  00000-0  56315-4 0  9999,2 52671  53.2164 166.7808 0001345  93.4682 266.6464 15.08836328113345,6917.892,95.438,540.687,538.826,0.0
52671.0,STARLINK-4071,PAYLOAD,2024-06-03 17:22:03,15.08837589,0.0001344,53.2165,164.9964,92.4085,267.7061,7.782e-05,9.51e-06,0.0,0 STARLINK-4071,1 52671U 22053R   24155.72365265  .00000951  00000-0  77820-4 0  9999,2 52671  53.2165 164.9964 0001344  92.4085 267.7061 15.08837589113822,6917.888,95.438,540.683,538.823,0.0
52671.0,STARLINK-4071,PAYLOAD,2024-06-04 07:40:31,15.0884218,0.0001239,53.2159,162.3199,91.3293,268.7841,0.00012028,1.627e-05,0.0,0 STARLINK-4071,1 52671U 22053R   24156.31980916  .00001627  00000-0  12028-3 0  9990,2 52671  53.2159 162.3199 0001239  91.3293 268.7841 15.08842180113919,6917.874,95.437,540.596,538.882,0.0
52671.0,STARLINK-4071,PAYLOAD,2024-06-04 17:12:50,15.08840141,0.0001226,53.2159,160.5344,81.8753,278.2378,0.00010046,1.311e-05,0.0,0 STARLINK-4071,1 52671U 22053R   24156.71725147  .00001311  00000-0  10046-3 0  9995,2 52671  53.2159 160.5344 0001226  81.8753 278.2378 15.08840141113558,6917.88,95.438,540.593,538.897,0.0
52671.0,STARLINK-4071,PAYLOAD,2024-06-05 04:20:33,15.08830167,0.0001325,53.2168,158.4548,87.6248,272.4896,-1.6721e-07,-2.91e-06,0.0,0 STARLINK-4071,1 52671U 22053R   24157.18094211 -.00000291  00000-0 -16721-6 0  9995,2 52671  53.2168 158.4548 0001325  87.6248 272.4896 15.08830167113629,6917.91,95.438,540.692,538.859,0.0
52671.0,STARLINK-4071,PAYLOAD,2024-06-05 09:06:42,15.08832004,0.0001331,53.2166,157.5625,85.8878,274.2267,1.0036e-05,-1.28e-06,0.0,0 STARLINK-4071,1 52671U 22053R   24157.37966129 -.00000128  00000-0  10036-4 0  9991,2 52671  53.2166 157.5625 0001331  85.8878 274.2267 15.08832004114073,6917.905,95.438,540.691,538.849,0.0
52671.0,STARLINK-4071,PAYLOAD,2024-06-05 17:03:38,15.08837123,0.0001346,53.2168,156.0758,85.6729,274.4417,3.1322e-05,2.11e-06,0.0,0 STARLINK-4071,1 52671U 22053R   24157.71085844  .00000211  00000-0  31322-4 0  9998,2 52671  53.2168 156.0758 0001346  85.6729 274.4417 15.08837123113700,6917.889,95.438,540.685,538.823,0.0
52671.0,STARLINK-4071,PAYLOAD,2024-06-06 07:22:06,15.08843394,0.0001385,53.2169,153.4003,85.472,274.643,4.3072e-05,3.98e-06,0.0,0 STARLINK-4071,1 52671U 22053R   24158.30701402  .00000398  00000-0  43072-4 0  9990,2 52671  53.2169 153.4003 0001385  85.4720 274.6430 15.08843394114218,6917.87,95.437,540.693,538.777,0.0
52671.0,STARLINK-4071,PAYLOAD,2024-06-06 16:54:24,15.08842355,0.0001383,53.2168,151.6159,85.0115,275.1035,3.8914e-05,3.31e-06,0.0,0 STARLINK-4071,1 52671U 22053R   24158.70445452  .00000331  00000-0  38914-4 0  9990,2 52671  53.2168 151.6159 0001383  85.0115 275.1035 15.08842355113853,6917.873,95.437,540.695,538.781,0.0
52671.0,STARLINK-4071,PAYLOAD,2024-06-07 23:06:44,15.08844512,0.0001393,53.2167,145.966,85.6184,274.4967,6.4266e-05,7.35e-06,0.0,0 STARLINK-4071,1 52671U 22053R   24159.96301297  .00000735  00000-0  64266-4 0  9994,2 52671  53.2167 145.9660 0001393  85.6184 274.4967 15.08844512114469,6917.867,95.437,540.695,538.768,0.0
52671.0,STARLINK-4071,PAYLOAD,2024-06-08 05:28:16,15.08848033,0.0001366,53.2162,144.7764,87.4545,272.6603,9.4761e-05,1.221e-05,0.0,0 STARLINK-4071,1 52671U 22053R   24160.22796890  .00001221  00000-0  94761-4 0  9996,2 52671  53.2162 144.7764 0001366  87.4545 272.6603 15.08848033114084,6917.856,95.437,540.666,538.776,0.0
52671.0,STARLINK-4071,PAYLOAD,2024-06-08 08:39:02,15.08850382,0.0001421,53.2163,144.1807,91.3761,268.7394,0.00010891,1.446e-05,0.0,0 STARLINK-4071,1 52671U 22053R   24160.36044632  .00001446  00000-0  10891-3 0  9991,2 52671  53.2163 144.1807 0001421  91.3761 268.7394 15.08850382114525,6917.849,95.437,540.697,538.731,0.0
52671.0,STARLINK-4071,PAYLOAD,2024-06-08 16:35:58,15.08843242,0.0001506,53.216,142.693,94.6692,265.4472,3.7448e-05,3.08e-06,0.0,0 STARLINK-4071,1 52671U 22053R   24160.69165155  .00000308  00000-0  37448-4 0  9995,2 52671  53.2160 142.6930 0001506  94.6692 265.4472 15.08843242114152,6917.87,95.437,540.777,538.694,0.0
